LYNK TOWER 4            
1 55034U 23001AB  26068.67743801  .00009160  00000+0  30014-3 0  9997
2 55034  97.3324 128.5940 0010321 112.3386 247.8950 15.31819885176588
STARLINK-30927          
1 58382U 23178J   26068.07591213 -.00000755  00000+0 -13388-4 0  9992
2 58382  53.1617   4.1926 0001169  85.5281 274.5853 15.30189297129774
